{"type":"FeatureCollection","features":[{"type":"Feature","properties":{},"geometry":{"type":"Point","coordinates":[101.149167,4.316238]}},{"type":"Feature","properties":{},"geometry":{"type":"Point","coordinates":[101.144339,4.326075]}},{"type":"Feature","properties":{},"geometry":{"type":"Point","coordinates":[101.14772,4.325319]}},{"type":"Feature","properties":{},"geometry":{"type":"Point","coordinates":[101.149736,4.324985]}},{"type":"Feature","properties":{},"geometry":{"type":"LineString","coordinates":[[101.149155,4.316256],[101.149606,4.316346],[101.149558,4.316754],[101.149474,4.31717],[101.149235,4.317699],[101.149008,4.318296],[101.148948,4.318555],[101.149061,4.318694],[101.149147,4.318818],[101.149037,4.319749],[101.149044,4.319977],[101.148895,4.320257],[101.148773,4.320257],[101.148758,4.320367],[101.14877,4.320458],[101.148594,4.321111],[101.148353,4.322758],[101.148265,4.3232],[101.148401,4.324042],[101.148577,4.324985],[101.148526,4.325026],[101.148378,4.325129]]}},{"type":"Feature","properties":{},"geometry":{"type":"LineString","coordinates":[[101.148377,4.32513],[101.148268,4.325197],[101.147483,4.325322],[101.146786,4.325435],[101.146086,4.325556],[101.14612,4.325769],[101.144674,4.326008],[101.144337,4.326078],[101.143541,4.326197],[101.143387,4.326221],[101.143363,4.326004],[101.14397,4.325909],[101.14642,4.325519],[101.147722,4.325323],[101.148894,4.3251],[101.149722,4.324977],[101.150663,4.324818],[101.150768,4.324917],[101.150852,4.324907],[101.150914,4.324848],[101.151222,4.324788],[101.153308,4.324424],[101.153428,4.324479],[101.153501,4.324629],[101.153532,4.325317],[101.153687,4.326134],[101.154,4.326754],[101.1551,4.328421],[101.155313,4.328964],[101.155406,4.329687]]}},{"type":"Feature","properties":{},"geometry":{"type":"LineString","coordinates":[[101.155381,4.329693],[101.155204,4.331579],[101.155184,4.332107],[101.155624,4.33335],[101.155876,4.334746],[101.155971,4.336074],[101.155796,4.342669],[101.156682,4.346194],[101.156535,4.351125]]}},{"type":"Feature","properties":{},"geometry":{"type":"LineString","coordinates":[[101.156416,4.351175],[101.155909,4.368786],[101.155912,4.379621],[101.157144,4.3936],[101.158415,4.40975],[101.161933,4.418924],[101.165092,4.423227],[101.164983,4.429472],[101.167461,4.436681],[101.168231,4.437838],[101.168229,4.439361],[101.167824,4.440079],[101.167481,4.441262]]}},{"type":"Feature","properties":{},"geometry":{"type":"LineString","coordinates":[[101.16742,4.441287],[101.167092,4.444741],[101.165464,4.452868]]}},{"type":"Feature","properties":{},"geometry":{"type":"LineString","coordinates":[[101.165403,4.452865],[101.164667,4.457315],[101.163417,4.463023]]}},{"type":"Feature","properties":{},"geometry":{"type":"LineString","coordinates":[[101.163363,4.463042],[101.16308,4.464869],[101.163221,4.466279],[101.164154,4.468558],[101.164968,4.470334],[101.165256,4.471087],[101.165025,4.473033],[101.165748,4.473136],[101.166018,4.473336],[101.166317,4.473566],[101.166616,4.473784],[101.166919,4.474006],[101.166986,4.474212],[101.167541,4.47458],[101.167825,4.474244],[101.167982,4.473863],[101.167711,4.473611],[101.167187,4.474164],[101.167088,4.473958],[101.166878,4.473936],[101.166584,4.473719],[101.166322,4.47353],[101.166014,4.473296],[101.165819,4.473147],[101.165748,4.473102],[101.165618,4.473082],[101.165334,4.473045],[101.165182,4.473032],[101.165028,4.473019],[101.164812,4.475061],[101.164514,4.475753],[101.164098,4.476455]]}},{"type":"Feature","properties":{},"geometry":{"type":"LineString","coordinates":[[101.164082,4.47646],[101.163485,4.477043]]}},{"type":"Feature","properties":{},"geometry":{"type":"LineString","coordinates":[[101.163463,4.477057],[101.161116,4.478475],[101.158299,4.480593],[101.155724,4.483271],[101.153754,4.488178],[101.150252,4.494114],[101.148515,4.497857]]}},{"type":"Feature","properties":{},"geometry":{"type":"LineString","coordinates":[[101.148437,4.497878],[101.146047,4.504209],[101.144506,4.507067],[101.140572,4.510363],[101.137979,4.515491],[101.136362,4.516755],[101.135072,4.519429],[101.130173,4.529091],[101.12717,4.536167],[101.120679,4.543535],[101.119079,4.545692],[101.11712,4.551023],[101.113644,4.557225],[101.112139,4.559327],[101.1137,4.568878],[101.112214,4.572588],[101.11135,4.573836],[101.109733,4.57608],[101.10799,4.57695],[101.106718,4.577664],[101.104391,4.579818],[101.101168,4.581829],[101.096019,4.582963],[101.094095,4.583044]]}},{"type":"Feature","properties":{},"geometry":{"type":"LineString","coordinates":[[101.094072,4.583104],[101.090986,4.584319],[101.089225,4.584586],[101.087716,4.584759],[101.086369,4.585304],[101.084874,4.585429],[101.084648,4.585654],[101.084708,4.586256],[101.084198,4.587834],[101.083046,4.589525],[101.082494,4.590334],[101.082303,4.590548],[101.082395,4.590799],[101.082415,4.591834],[101.082412,4.592101],[101.082148,4.592904],[101.082225,4.593208],[101.082979,4.592995],[101.082775,4.592364],[101.082537,4.591976],[101.082522,4.591092],[101.082529,4.590679],[101.082629,4.590472],[101.082253,4.590319],[101.082045,4.590113],[101.081154,4.588913],[101.079416,4.589405],[101.076591,4.5902],[101.076508,4.590065],[101.076745,4.588998],[101.076589,4.588947],[101.076432,4.589977],[101.075922,4.590576],[101.074441,4.592106],[101.073603,4.593037],[101.072942,4.593396],[101.072956,4.593382],[101.072617,4.59354],[101.072816,4.593966],[101.072597,4.594274],[101.072526,4.594212],[101.072526,4.594212]]}}]}
